[{"OBJECT_NAME":"POLYITAN-1","OBJECT_ID":"2014-033AJ","EPOCH":"2026-03-09T22:27:50.258304","MEAN_MOTION":15.29568085,"ECCENTRICITY":0.00093607,"INCLINATION":98.1053,"RA_OF_ASC_NODE":86.0432,"ARG_OF_PERICENTER":127.248,"MEAN_ANOMALY":232.9614,"EPHEMERIS_TYPE":0,"CLASSIFICATION_TYPE":"U","NORAD_CAT_ID":40042,"ELEMENT_SET_NO":999,"REV_AT_EPOCH":63840,"BSTAR":0.00083772474,"MEAN_MOTION_DOT":0.00024003,"MEAN_MOTION_DDOT":0},{"OBJECT_NAME":"STARLINK-35473","OBJECT_ID":"2025-225AD","EPOCH":"2026-03-09T13:12:33.519744","MEAN_MOTION":15.30175812,"ECCENTRICITY":0.00012876,"INCLINATION":53.158,"RA_OF_ASC_NODE":166.5474,"ARG_OF_PERICENTER":67.5136,"MEAN_ANOMALY":292.6001,"EPHEMERIS_TYPE":0,"CLASSIFICATION_TYPE":"U","NORAD_CAT_ID":65937,"ELEMENT_SET_NO":999,"REV_AT_EPOCH":2349,"BSTAR":0.00069852149,"MEAN_MOTION_DOT":0.0002037,"MEAN_MOTION_DDOT":0}]
